ONEWEB-0371             
1 49297U 21090U   26167.88659617  .00000024  00000+0  28266-4 0  9998
2 49297  87.9174 305.0261 0001879 102.5795 257.5548 13.19724202226412
ONEWEB-0372             
1 49298U 21090V   26167.85914947  .00000109  00000+0  23685-3 0  9999
2 49298  87.9195 274.5071 0001951 101.5834 258.5518 13.20771441229790
ONEWEB-0373             
1 49299U 21090W   26167.73303361  .00000011  00000+0 -36961-5 0  9995
2 49299  87.9192 274.5325 0002060 100.2254 259.9112 13.20771468230969
ONEWEB-0374             
1 49300U 21090X   26168.04261429 -.00000095  00000+0 -29019-3 0  9998
2 49300  87.8969 289.7260 0002161  84.6465 275.4911 13.14503101227540
ONEWEB-0375             
1 49301U 21090Y   26168.02428303 -.00000092  00000+0 -25894-3 0  9997
2 49301  87.9194 274.4661 0002312  87.3994 272.7404 13.20770301230505
ONEWEB-0376             
1 49302U 21090Z   26168.11246738 -.00000028  00000+0 -10311-3 0  9995
2 49302  87.9175 304.9811 0001717 101.9876 258.1449 13.19724325226449
ONEWEB-0377             
1 49303U 21090AA  26168.16245911 -.00001831  00000+0 -45361-2 0  9998
2 49303  87.9199 274.4420 0002426  96.6951 263.4459 13.20776113230512
ONEWEB-0378             
1 49304U 21090AB  26167.72811742  .00000053  00000+0  97581-4 0  9997
2 49304  87.9191 274.5321 0001970  96.2475 263.8883 13.20770142229728
ONEWEB-0379             
1 49305U 21090AC  26168.03785381  .00000002  00000+0 -29383-4 0  9992
2 49305  87.8966 289.7376 0001915  96.3234 263.8113 13.14502545227546
ONEWEB-0380             
1 49306U 21090AD  26168.10931704  .00000097  00000+0  20975-3 0  9993
2 49306  87.9172 304.9869 0002057  97.1908 262.9459 13.19724878226417
ONEWEB-0381             
1 49307U 21090AE  26168.00744433  .00000041  00000+0  68096-4 0  9990
2 49307  87.9196 274.4761 0002081  93.0532 267.0840 13.20772326229800
ONEWEB-0382             
1 49308U 21090AF  26167.99396488  .00000081  00000+0  16740-3 0  9993
2 49308  87.9193 274.4729 0001976  91.8645 268.2715 13.20770643229797
ONEWEB-0383             
1 49309U 21090AG  26167.87926537  .00000078  00000+0  17549-3 0  9999
2 49309  87.8970 289.7606 0001830  95.4457 264.6882 13.14500806227555
ONEWEB-0384             
1 49310U 21090AH  26168.05837056  .00000013  00000+0 -28152-6 0  9994
2 49310  87.9198 274.5039 0001947  87.0841 273.0515 13.20812322229819
ONEWEB-0385             
1 49311U 21090AJ  26167.98723991 -.00000013  00000+0 -63018-4 0  9997
2 49311  87.9193 274.4797 0002000  94.5361 265.6001 13.20773160229774
ONEWEB-0386             
1 49312U 21090AK  26168.00407843  .00000049  00000+0  89658-4 0  9992
2 49312  87.9199 274.4673 0001935  92.9772 267.1583 13.20771844229799
